[{"OBJECT_NAME":"DAMPE","OBJECT_ID":"2015-078A","EPOCH":"2026-03-09T23:55:00.527232","MEAN_MOTION":15.30502084,"ECCENTRICITY":0.00138005,"INCLINATION":97.4588,"RA_OF_ASC_NODE":73.9866,"ARG_OF_PERICENTER":70.6942,"MEAN_ANOMALY":289.579,"EPHEMERIS_TYPE":0,"CLASSIFICATION_TYPE":"U","NORAD_CAT_ID":41173,"ELEMENT_SET_NO":999,"REV_AT_EPOCH":56937,"BSTAR":9.1158173e-5,"MEAN_MOTION_DOT":2.617e-5,"MEAN_MOTION_DDOT":0},{"OBJECT_NAME":"STARLINK-31522","OBJECT_ID":"2024-046D","EPOCH":"2026-03-09T22:27:49.230144","MEAN_MOTION":15.30193631,"ECCENTRICITY":0.0001022,"INCLINATION":53.1609,"RA_OF_ASC_NODE":154.4541,"ARG_OF_PERICENTER":67.2061,"MEAN_ANOMALY":292.9048,"EPHEMERIS_TYPE":0,"CLASSIFICATION_TYPE":"U","NORAD_CAT_ID":59204,"ELEMENT_SET_NO":999,"REV_AT_EPOCH":11308,"BSTAR":6.643743e-6,"MEAN_MOTION_DOT":-1.62e-6,"MEAN_MOTION_DDOT":0}]
